STARLINK-1594           
1 46140U 20057Z   21277.57557078 -.00001653  00000-0 -92150-4 0  9990
2 46140  53.0543 336.1380 0001032  92.7664 267.3443 15.06388065 64158
STARLINK-1596           
1 46141U 20057AA  21277.88519295 -.00001607  00000-0 -89048-4 0  9995
2 46141  53.0547 334.7477 0001035 105.4693 254.6411 15.06391739 63594
STARLINK-1597           
1 46142U 20057AB  21277.96996577  .00004215  00000-0  30178-3 0  9992
2 46142  53.0569  14.3549 0001224  94.9540 265.1588 15.06388557 63049
STARLINK-1599           
1 46143U 20057AC  21277.93292175  .00083202  00000-0  51247-2 0  9995
2 46143  53.0557 354.4691 0002932 145.4556 214.6625 15.09261060 63323
STARLINK-1606           
1 46144U 20057AD  21277.60321349  .00000289  00000-0  38315-4 0  9993
2 46144  53.0561 356.0065 0001406  84.5124 275.6025 15.06389163 50869
STARLINK-1608           
1 46146U 20057AF  21277.64929346 -.00000989  00000-0 -47509-4 0  9994
2 46146  53.0546  15.8091 0001406 105.1508 254.9636 15.06390467 62342
STARLINK-1611           
1 46147U 20057AG  21277.96259495 -.00000859  00000-0 -38808-4 0  9999
2 46147  53.0568  14.3993 0001326  90.7016 269.4125 15.06382441 63041
STARLINK-1616           
1 46148U 20057AH  21277.50369089 -.00001141  00000-0 -57757-4 0  9990
2 46148  53.0557 356.4484 0001220  97.5291 262.5836 15.06388130 62591
STARLINK-1620           
1 46149U 20057AJ  21277.58478323 -.00001309  00000-0 -69049-4 0  9994
2 46149  53.0559 356.0917 0001182  95.2233 264.8891 15.06388011 63886
STARLINK-1629           
1 46150U 20057AK  21277.64559082  .00000512  00000-0  53232-4 0  9995
2 46150  53.0559  15.8081 0001140 104.5924 255.5192 15.06394599 62344
STARLINK-1631           
1 46151U 20057AL  21277.48894819  .00000026  00000-0  20662-4 0  9999
2 46151  53.0553 356.5255 0001274  97.1551 262.9582 15.06389489 63256
STARLINK-1634           
1 46152U 20057AM  21277.73775305 -.00000604  00000-0 -21675-4 0  9995
2 46152  53.0559  15.4004 0001223 102.3478 257.7648 15.06393890 62353
STARLINK-1636           
1 46153U 20057AN  21277.64006960 -.00001509  00000-0 -82422-4 0  9992
2 46153  53.0559 355.8425 0001074  90.1602 269.9510 15.06396667 62616
STARLINK-1642           
1 46154U 20057AP  21277.98193995  .00000499  00000-0  52414-4 0  9998
2 46154  53.0564   4.3065 0001305  97.4458 262.6679 15.06396258 63180
STARLINK-1667           
1 46155U 20057AQ  21277.87414007 -.00000153  00000-0  85992-5 0  9993
2 46155  53.0536 334.7957 0001227  82.2655 277.8473 15.06393589 63593
STARLINK-1545           
1 46156U 20057AR  21277.59952570  .00000511  00000-0  53192-4 0  9998
2 46156  53.0549 356.0291 0001337  93.9861 266.1281 15.06389322 63864
STARLINK-1587           
1 46157U 20057AS  21277.85201442 -.00001791  00000-0 -10140-3 0  9991
2 46157  53.0539 334.8839 0001291  88.1509 271.9628 15.06384141 63593
STARLINK-1589           
1 46158U 20057AT  21277.58293327 -.00000562  00000-0 -18816-4 0  9999
2 46158  53.0559 336.0985 0001371  95.6251 264.4894 15.06392519 64151
STARLINK-1595           
1 46159U 20057AU  21277.75618258 -.00001286  00000-0 -67452-4 0  9997
2 46159  53.0555  15.3268 0001101 106.6022 253.5088 15.06392388 63011
STARLINK-1598           
1 46160U 20057AV  21277.61427423 -.00001945  00000-0 -11171-3 0  9994
2 46160  53.0554 355.9551 0001261  91.5727 268.5407 15.06394243 63867
STARLINK-1600           
1 46161U 20057AW  21277.92389714 -.00001130  00000-0 -56995-4 0  9999
2 46161  53.0554 354.5646 0001071  96.0220 264.0891 15.06391804 63324
STARLINK-1603           
1 46162U 20057AX  21277.92757737 -.00001510  00000-0 -82528-4 0  9997
2 46162  53.0550 354.5460 0000984  88.1066 272.0035 15.06387342 63339
STARLINK-1610           
1 46163U 20057AY  21277.46130208  .00000579  00000-0  57751-4 0  9997
2 46163  53.0564 336.6474 0001102  95.5167 264.5947 15.06391568 62879
STARLINK-1612           
1 46164U 20057AZ  21277.85570326 -.00001447  00000-0 -78303-4 0  9993
2 46164  53.0546 334.8830 0001163  90.3526 269.7596 15.06390900 64198
STARLINK-1613           
1 46165U 20057BA  21277.99944803 -.00000775  00000-0 -33171-4 0  9991
2 46165  53.0568  14.2349 0001244  90.8845 269.2286 15.06396058 63051
STARLINK-1615           
1 46166U 20057BB  21277.97365203 -.00001040  00000-0 -50963-4 0  9995
2 46166  53.0559  14.3360 0001077 101.3533 258.7577 15.06391225 63059
STARLINK-1626           
1 46167U 20057BC  21277.65664987  .00000563  00000-0  56702-4 0  9996
2 46167  53.0566  15.7675 0001344  95.9544 264.1598 15.06399797 62346
STARLINK-1627           
1 46168U 20057BD  21277.82618755 -.00002607  00000-0 -15628-3 0  9992
2 46168  53.0541 325.0033 0001106  97.7477 262.3638 15.06385797 63066
STARLINK-1628           
1 46169U 20057BE  21278.00140804 -.00000793  00000-0 -35254-4 0  9991
2 46169  53.0010  14.2100 0001263 100.4550 259.6580 15.05585024 63034
STARLINK-1633           
1 46171U 20057BG  21277.63270248 -.00001669  00000-0 -93231-4 0  9990
2 46171  53.0558 355.8723 0001114  95.3781 264.7335 15.06393410 63876
STARLINK-1635           
1 46172U 20057BH  21277.64745087 -.00001364  00000-0 -72694-4 0  9992
2 46172  53.0568 355.8127 0001096 105.1466 254.9645 15.06388010 63870
STARLINK-1640           
1 46173U 20057BJ  21277.69351230  .00001089  00000-0  91958-4 0  9997
2 46173  53.0559  15.6000 0001209 101.1255 258.9870 15.06398483 62340
STARLINK-1641           
1 46174U 20057BK  21277.96626858  .00000825  00000-0  74274-4 0  9998
2 46174  53.0564  14.3679 0000745  89.3735 270.7339 15.06399748 63044
SKYSAT-C17              
1 46179U 20057BQ  21277.46721864  .00014491  00000-0  19053-3 0  9998
2 46179  52.9972 226.0241 0010156   6.5581 353.5561 15.58730492 65315
SKYSAT-C18              
1 46180U 20057BR  21277.58211090  .00014848  00000-0  19529-3 0  9992
2 46180  52.9927 225.8290 0011281 160.8579 199.2858 15.58685023 64030
2020-058A               
1 46232U 20058A   21278.08267212  .00000716  00000-0  32851-4 0  9997
2 46232  97.4486 330.0057 0012267 275.2969 171.9319 15.23628273 62113
2020-058B               
1 46233U 20058B   21278.20301464  .00002130  00000-0  88610-4 0  9996
2 46233  97.4487 330.6100 0014380 278.1110 166.6249 15.24799081 62152
2020-058C               
1 46234U 20058C   21278.23167808  .00001251  00000-0  53735-4 0  9995
2 46234  97.4481 330.5584 0014355 277.6009 169.0914 15.24510903 62155
SKYSAT-C19              
1 46235U 20057BS  21277.87253387  .00014426  00000-0  19247-3 0  9999
2 46235  52.9948 222.7104 0004699 271.0968  88.9504 15.58381804 64106
SAOCOM 1B               
1 46265U 20059A   21278.11651950  .00000102  00000-0  19314-4 0  9992
2 46265  97.8896 102.5415 0001337  82.3915 277.7444 14.82150170 59303
GNOMES-1                
1 46266U 20059B   21277.78986786  .00000488  00000-0  58973-4 0  9994
2 46266  97.8853 105.3478 0003862 274.3143  85.7632 14.88133166 59452
TYVAK-0172              
1 46267U 20059C   21277.74822291  .00001223  00000-0  13682-3 0  9996
2 46267  97.8727 104.9142 0005101 280.9393  79.1250 14.88720345 59458
RLFL14                  
1 46268U 20060A   21277.76893324  .00001963  00000-0  13295-3 0  9997
2 46268  45.1049  11.5536 0012212 339.3133  20.7250 15.10292797 60404
CAPELLA-2               
1 46269U 20060B   21277.64009076  .00008778  00000-0  51315-3 0  9994
2 46269  45.0981   9.8699 0008544 345.9785  14.0834 15.12247677 60412
NUSAT-6 (HYPATIA)       
1 46272U 20061A   21278.18515748  .00002732  00000-0  12100-3 0  9990
2 46272  97.3604 349.6463 0005699 247.0501 113.0136 15.22464192 60361
ESAIL                   
1 46273U 20061B   21277.95827771  .00002071  00000-0  11132-3 0  9997
2 46273  97.4284 349.2223 0004949 307.8901  52.1888 15.15972352 60106
ION-MK01                
1 46274U 20061C   21277.45234027  .00001325  00000-0  72912-4 0  9994
2 46274  97.4275 348.6808 0004808 307.8739  52.2058 15.15742994 60020
ATHENA                  
1 46275U 20061D   21277.46002804  .00001029  00000-0  56322-4 0  9990
2 46275  97.4232 348.8981 0001498  45.1290 315.0065 15.16413105 60055
UPMSAT-2                
1 46276U 20061E   21277.48413312  .00001430  00000-0  76414-4 0  9993
2 46276  97.4235 349.0312 0001804  42.3143 317.8229 15.16665355 60066
NEMO-HD                 
1 46277U 20061F   21278.17342426  .00001054  00000-0  57479-4 0  9990
2 46277  97.4233 349.6666 0001883  37.8473  46.0900 15.16513903 60164
GHGSAT-C1               
1 46278U 20061G   21277.93030307  .00001834  00000-0  96082-4 0  9995
2 46278  97.4244 349.6500 0003562  62.6993 297.4601 15.17028923 60145
SIMBA                   
1 46279U 20061H   21278.10754142  .00001725  00000-0  10796-3 0  9992
2 46279  97.4798 348.8701 0005704  73.2230 286.9625 15.10681834 59883
TRISAT                  
1 46280U 20061J   21277.65614010  .00002133  00000-0  13303-3 0  9993
2 46280  97.4790 348.3738 0005487  73.2139 286.9692 15.10567944 59821
PICASSO-BEL             
1 46281U 20061K   21277.65462682  .00002563  00000-0  15709-3 0  9999
2 46281  97.4796 348.5303 0005497  72.2696 287.9133 15.11034043 59849
FLOCK 4V-9              
1 46282U 20061L   21277.65178047  .00003342  00000-0  20324-3 0  9994
2 46282  97.4798 348.5456 0005281  74.7348 285.4465 15.11111775 59831
FLOCK 4V-12             
1 46283U 20061M   21277.78024167  .00002513  00000-0  15376-3 0  9992
2 46283  97.4814 348.7250 0005190  73.5300 286.6500 15.11111268 59851
DIDO 3                  
1 46284U 20061N   21277.43035500  .00001757  00000-0  11012-3 0  9990
2 46284  97.4784 348.2012 0005145  71.0166 289.1621 15.10624154 59755
FLOCK 4V-11             
1 46285U 20061P   21278.10638488  .00002549  00000-0  15583-3 0  9997
2 46285  97.4798 349.0278 0005185  71.5943 288.5851 15.11133748 59906
FLOCK 4V-14             
1 46286U 20061Q   21278.09765054  .00002684  00000-0  16345-3 0  9993
2 46286  97.4799 349.0365 0004953  71.3872 288.7896 15.11226243 59900
